IRIDIUM 119             
1 42959U 17061E   23257.78560408  .00000157  00000+0  49132-4 0  9996
2 42959  86.3911  85.8480 0002314  84.9080 275.2379 14.34217288310561
IRIDIUM 107             
1 42960U 17061F   23257.80462093  .00000158  00000+0  49442-4 0  9997
2 42960  86.3911  85.8553 0002186  82.0773 278.0671 14.34219294310575
IRIDIUM 132             
1 42961U 17061G   23257.88074236  .00000148  00000+0  45762-4 0  9994
2 42961  86.3910  85.8094 0002252  84.2749 275.8703 14.34216810310589
IRIDIUM 136             
1 42962U 17061H   23257.77291298  .00000158  00000+0  49223-4 0  9999
2 42962  86.3912  85.8568 0002294  92.0693 268.0766 14.34218890310582
IRIDIUM 139             
1 42963U 17061J   23257.63970778  .00000161  00000+0  50562-4 0  9994
2 42963  86.3912  85.9587 0002189  83.5011 276.6434 14.34217370310575
IRIDIUM 125             
1 42964U 17061K   23257.48749269  .00000153  00000+0  47634-4 0  9994
2 42964  86.3914  86.0650 0002272  83.5803 276.5652 14.34218879310568
IRIDIUM 135             
1 43070U 17083A   23257.39184390  .00000462  00000+0  15800-3 0  9997
2 43070  86.4009  22.7742 0001733  92.2500 267.8895 14.34220680299846
IRIDIUM 138             
1 43071U 17083B   23257.83582368  .00000301  00000+0  10033-3 0  9999
2 43071  86.4001  22.3413 0002258  91.7130 268.4324 14.34217948299898
